{
  "type": "FeatureCollection",
  "features": [
    {
      "type": "Feature",
      "properties": {
        "norad_id": 41826,
        "name": "FENGYUN 1C DEB",
        "group": "fengyun-1c-debris",
        "lat": -79.68482120803505,
        "lon": 123.6108803603443,
        "alt_km": 820.2439169070858,
        "timestamp": "2025-12-26T06:43:29.802074+00:00",
        "meta_object_name": "FENGYUN 1C DEB",
        "meta_object_id": "1999-025EYD",
        "meta_epoch": "2025-12-17T15:40:24.664800",
        "meta_mean_motion": 14.23780201,
        "meta_eccentricity": 0.00560806,
        "meta_inclination": 98.7338,
        "meta_ra_of_asc_node": 57.4138,
        "meta_arg_of_pericenter": 209.4871,
        "meta_mean_anomaly": 150.3141,
        "meta_ephemeris_type": 0,
        "meta_classification_type": "U",
        "meta_norad_cat_id": 41826,
        "meta_element_set_no": 999,
        "meta_rev_at_epoch": 47430,
        "meta_bstar": 0.0011247822,
        "meta_mean_motion_dot": 2.57e-05,
        "meta_mean_motion_ddot": 0,
        "tle_line1": "1 41826U 99025EYD 25351.65306325  .00002570  00000+0  11248-2 0  9993",
        "tle_line2": "2 41826  98.7338  57.4138 0056080 209.4871 150.3141 14.23780201474300"
      },
      "geometry": {
        "type": "Point",
        "coordinates": [
          123.6108803603443,
          -79.68482120803505
        ]
      }
    },
    {
      "type": "Feature",
      "properties": {
        "norad_id": 41827,
        "name": "FENGYUN 1C DEB",
        "group": "fengyun-1c-debris",
        "lat": -64.05329377183108,
        "lon": -128.99402966136265,
        "alt_km": 799.7850510267026,
        "timestamp": "2025-12-26T06:43:29.802084+00:00",
        "meta_object_name": "FENGYUN 1C DEB",
        "meta_object_id": "1999-025EYE",
        "meta_epoch": "2025-12-24T03:02:16.250208",
        "meta_mean_motion": 14.25355826,
        "meta_eccentricity": 0.00586907,
        "meta_inclination": 98.742,
        "meta_ra_of_asc_node": 67.2949,
        "meta_arg_of_pericenter": 181.6503,
        "meta_mean_anomaly": 178.4491,
        "meta_ephemeris_type": 0,
        "meta_classification_type": "U",
        "meta_norad_cat_id": 41827,
        "meta_element_set_no": 999,
        "meta_rev_at_epoch": 47493,
        "meta_bstar": 0.0017029665,
        "meta_mean_motion_dot": 4.044e-05,
        "meta_mean_motion_ddot": 0,
        "tle_line1": "1 41827U 99025EYE 25358.12657697  .00004044  00000+0  17030-2 0  9997",
        "tle_line2": "2 41827  98.7420  67.2949 0058690 181.6503 178.4491 14.25355826474935"
      },
      "geometry": {
        "type": "Point",
        "coordinates": [
          -128.99402966136265,
          -64.05329377183108
        ]
      }
    },
    {
      "type": "Feature",
      "properties": {
        "norad_id": 41828,
        "name": "FENGYUN 1C DEB",
        "group": "fengyun-1c-debris",
        "lat": -5.347108020918678,
        "lon": 130.0068843456791,
        "alt_km": 743.1072791680235,
        "timestamp": "2025-12-26T06:43:29.802095+00:00",
        "meta_object_name": "FENGYUN 1C DEB",
        "meta_object_id": "1999-025EYF",
        "meta_epoch": "2025-12-23T07:38:21.156288",
        "meta_mean_motion": 14.52047113,
        "meta_eccentricity": 0.00373451,
        "meta_inclination": 98.9241,
        "meta_ra_of_asc_node": 126.0186,
        "meta_arg_of_pericenter": 145.7037,
        "meta_mean_anomaly": 214.6578,
        "meta_ephemeris_type": 0,
        "meta_classification_type": "U",
        "meta_norad_cat_id": 41828,
        "meta_element_set_no": 999,
        "meta_rev_at_epoch": 47617,
        "meta_bstar": 0.0043737827,
        "meta_mean_motion_dot": 0.00017841,
        "meta_mean_motion_ddot": 0,
        "tle_line1": "1 41828U 99025EYF 25357.31830042  .00017841  00000+0  43738-2 0  9998",
        "tle_line2": "2 41828  98.9241 126.0186 0037345 145.7037 214.6578 14.52047113476177"
      },
      "geometry": {
        "type": "Point",
        "coordinates": [
          130.0068843456791,
          -5.347108020918678
        ]
      }
    },
    {
      "type": "Feature",
      "properties": {
        "norad_id": 41829,
        "name": "FENGYUN 1C DEB",
        "group": "fengyun-1c-debris",
        "lat": 23.324553961764575,
        "lon": 65.64182257040623,
        "alt_km": 844.842477887003,
        "timestamp": "2025-12-26T06:43:29.802105+00:00",
        "meta_object_name": "FENGYUN 1C DEB",
        "meta_object_id": "1999-025EYG",
        "meta_epoch": "2025-12-25T03:39:15.759072",
        "meta_mean_motion": 14.25203184,
        "meta_eccentricity": 0.0056952,
        "meta_inclination": 98.7427,
        "meta_ra_of_asc_node": 68.3225,
        "meta_arg_of_pericenter": 183.7772,
        "meta_mean_anomaly": 176.2985,
        "meta_ephemeris_type": 0,
        "meta_classification_type": "U",
        "meta_norad_cat_id": 41829,
        "meta_element_set_no": 999,
        "meta_rev_at_epoch": 47484,
        "meta_bstar": 0.0015056,
        "meta_mean_motion_dot": 3.555e-05,
        "meta_mean_motion_ddot": 0,
        "tle_line1": "1 41829U 99025EYG 25359.15226573  .00003555  00000+0  15056-2 0  9990",
        "tle_line2": "2 41829  98.7427  68.3225 0056952 183.7772 176.2985 14.25203184474846"
      },
      "geometry": {
        "type": "Point",
        "coordinates": [
          65.64182257040623,
          23.324553961764575
        ]
      }
    },
    {
      "type": "Feature",
      "properties": {
        "norad_id": 41830,
        "name": "FENGYUN 1C DEB",
        "group": "fengyun-1c-debris",
        "lat": -81.18525589903682,
        "lon": 168.7618575504139,
        "alt_km": 810.9359704208,
        "timestamp": "2025-12-26T06:43:29.802115+00:00",
        "meta_object_name": "FENGYUN 1C DEB",
        "meta_object_id": "1999-025EYH",
        "meta_epoch": "2025-12-22T03:50:08.879136",
        "meta_mean_motion": 14.2651985,
        "meta_eccentricity": 0.00549434,
        "meta_inclination": 98.7534,
        "meta_ra_of_asc_node": 68.1407,
        "meta_arg_of_pericenter": 190.1772,
        "meta_mean_anomaly": 169.8301,
        "meta_ephemeris_type": 0,
        "meta_classification_type": "U",
        "meta_norad_cat_id": 41830,
        "meta_element_set_no": 999,
        "meta_rev_at_epoch": 47408,
        "meta_bstar": 0.00166186,
        "meta_mean_motion_dot": 4.027e-05,
        "meta_mean_motion_ddot": 0,
        "tle_line1": "1 41830U 99025EYH 25356.15982499  .00004027  00000+0  16619-2 0  9996",
        "tle_line2": "2 41830  98.7534  68.1407 0054943 190.1772 169.8301 14.26519850474084"
      },
      "geometry": {
        "type": "Point",
        "coordinates": [
          168.7618575504139,
          -81.18525589903682
        ]
      }
    },
    {
      "type": "Feature",
      "properties": {
        "norad_id": 41831,
        "name": "FENGYUN 1C DEB",
        "group": "fengyun-1c-debris",
        "lat": 2.364731696564211,
        "lon": 66.6981488063549,
        "alt_km": 853.0541585653837,
        "timestamp": "2025-12-26T06:43:29.802125+00:00",
        "meta_object_name": "FENGYUN 1C DEB",
        "meta_object_id": "1999-025EYJ",
        "meta_epoch": "2025-12-25T03:44:39.439392",
        "meta_mean_motion": 14.2465038,
        "meta_eccentricity": 0.00567669,
        "meta_inclination": 98.7329,
        "meta_ra_of_asc_node": 65.9441,
        "meta_arg_of_pericenter": 185.9976,
        "meta_mean_anomaly": 174.053,
        "meta_ephemeris_type": 0,
        "meta_classification_type": "U",
        "meta_norad_cat_id": 41831,
        "meta_element_set_no": 999,
        "meta_rev_at_epoch": 47436,
        "meta_bstar": 0.0015637523,
        "meta_mean_motion_dot": 3.654e-05,
        "meta_mean_motion_ddot": 0,
        "tle_line1": "1 41831U 99025EYJ 25359.15601203  .00003654  00000+0  15638-2 0  9996",
        "tle_line2": "2 41831  98.7329  65.9441 0056766 185.9976 174.0530 14.24650380474368"
      },
      "geometry": {
        "type": "Point",
        "coordinates": [
          66.6981488063549,
          2.364731696564211
        ]
      }
    },
    {
      "type": "Feature",
      "properties": {
        "norad_id": 41832,
        "name": "FENGYUN 1C DEB",
        "group": "fengyun-1c-debris",
        "lat": 40.13088108042544,
        "lon": 56.77292792910523,
        "alt_km": 841.11737834614,
        "timestamp": "2025-12-26T06:43:29.802134+00:00",
        "meta_object_name": "FENGYUN 1C DEB",
        "meta_object_id": "1999-025EYK",
        "meta_epoch": "2025-12-25T03:33:24.860160",
        "meta_mean_motion": 14.24321467,
        "meta_eccentricity": 0.00560792,
        "meta_inclination": 98.7282,
        "meta_ra_of_asc_node": 63.0896,
        "meta_arg_of_pericenter": 190.5379,
        "meta_mean_anomaly": 169.4629,
        "meta_ephemeris_type": 0,
        "meta_classification_type": "U",
        "meta_norad_cat_id": 41832,
        "meta_element_set_no": 999,
        "meta_rev_at_epoch": 47527,
        "meta_bstar": 0.0016089119,
        "meta_mean_motion_dot": 3.735e-05,
        "meta_mean_motion_ddot": 0,
        "tle_line1": "1 41832U 99025EYK 25359.14820440  .00003735  00000+0  16089-2 0  9993",
        "tle_line2": "2 41832  98.7282  63.0896 0056079 190.5379 169.4629 14.24321467475275"
      },
      "geometry": {
        "type": "Point",
        "coordinates": [
          56.77292792910523,
          40.13088108042544
        ]
      }
    }
  ]
}